start=new Date('2022-11-07T00:00:00.000Z').valueOf();
sats=[{"REF_FRAME":"TEME","TLE_LINE1":"1 52297U 22041AN  22310.80353035 -.00003746  00000-0 -21730-3 0  9997","FILE":"3647202","OBJECT_NAME":"STARLINK-3758","MEAN_ANOMALY":"306.9793","COUNTRY_CODE":"US","GP_ID":"217063376","MEAN_MOTION":"15.08846853","SEMIMAJOR_AXIS":"6917.859","MEAN_MOTION_DDOT":"0.0000000000000","CENTER_NAME":"EARTH","OBJECT_ID":"2022-041AN","REV_AT_EPOCH":"3171","BSTAR":"-0.00021730000000","EPHEMERIS_TYPE":"0","INCLINATION":"53.2165","SITE":"AFETR","DECAY_DATE":null,"MEAN_MOTION_DOT":"-0.00003746","MEAN_ELEMENT_THEORY":"SGP4","PERIAPSIS":"537.913","ARG_OF_PERICENTER":"53.1439","CLASSIFICATION_TYPE":"U","OBJECT_TYPE":"PAYLOAD","ELEMENT_SET_NO":"999","NORAD_CAT_ID":"52297","ECCENTRICITY":"0.00026190","RCS_SIZE":"LARGE","PERIOD":"95.437","EPOCH":"2022-11-06T19:17:05.022240","APOAPSIS":"541.536","TIME_SYSTEM":"UTC","LAUNCH_DATE":"2022-04-21","RA_OF_ASC_NODE":"170.9084","TLE_LINE2":"2 52297  53.2165 170.9084 0002619  53.1439 306.9793 15.08846853 31718"},{"LAUNCH_DATE":"2022-04-21","TLE_LINE2":"2 52298  53.2186 171.0160 0001821  44.3495 315.7643 15.08819185 31706","RA_OF_ASC_NODE":"171.0160","APOAPSIS":"541.069","TIME_SYSTEM":"UTC","RCS_SIZE":"LARGE","EPOCH":"2022-11-06T18:45:17.666208","PERIOD":"95.439","OBJECT_TYPE":"PAYLOAD","NORAD_CAT_ID":"52298","ELEMENT_SET_NO":"999","ECCENTRICITY":"0.00018210","PERIAPSIS":"538.549","CLASSIFICATION_TYPE":"U","ARG_OF_PERICENTER":"44.3495","MEAN_ELEMENT_THEORY":"SGP4","DECAY_DATE":null,"MEAN_MOTION_DOT":"0.00000423","INCLINATION":"53.2186","EPHEMERIS_TYPE":"0","SITE":"AFETR","CENTER_NAME":"EARTH","REV_AT_EPOCH":"3170","BSTAR":"0.00004467600000","OBJECT_ID":"2022-041AP","MEAN_MOTION_DDOT":"0.0000000000000","SEMIMAJOR_AXIS":"6917.944","MEAN_MOTION":"15.08819185","GP_ID":"217062964","COUNTRY_CODE":"US","MEAN_ANOMALY":"315.7643","OBJECT_NAME":"STARLINK-3760","TLE_LINE1":"1 52298U 22041AP  22310.78145447  .00000423  00000-0  44676-4 0  9993","FILE":"3647203","REF_FRAME":"TEME"},{"ECCENTRICITY":"0.00013660","ELEMENT_SET_NO":"999","NORAD_CAT_ID":"52299","OBJECT_TYPE":"PAYLOAD","EPOCH":"2022-11-06T01:26:38.859072","PERIOD":"95.438","RCS_SIZE":"LARGE","TIME_SYSTEM":"UTC","APOAPSIS":"540.714","RA_OF_ASC_NODE":"174.2509","TLE_LINE2":"2 52299  53.2190 174.2509 0001366  87.2216 272.8933 15.08832418 30387","LAUNCH_DATE":"2022-04-21","SITE":"AFETR","EPHEMERIS_TYPE":"0","INCLINATION":"53.2190","MEAN_MOTION_DOT":"-0.00005729","DECAY_DATE":null,"MEAN_ELEMENT_THEORY":"SGP4","ARG_OF_PERICENTER":"87.2216","CLASSIFICATION_TYPE":"U","PERIAPSIS":"538.824","GP_ID":"217057292","MEAN_MOTION":"15.08832418","MEAN_MOTION_DDOT":"0.0000000000000","SEMIMAJOR_AXIS":"6917.904","OBJECT_ID":"2022-041AQ","REV_AT_EPOCH":"3038","BSTAR":"-0.00034221000000","CENTER_NAME":"EARTH","FILE":"3647066","TLE_LINE1":"1 52299U 22041AQ  22310.06017198 -.00005729  00000-0 -34221-3 0  9996","REF_FRAME":"TEME","OBJECT_NAME":"STARLINK-3759","MEAN_ANOMALY":"272.8933","COUNTRY_CODE":"US"},{"CENTER_NAME":"EARTH","OBJECT_ID":"2022-041AR","BSTAR":"-0.00030624000000","REV_AT_EPOCH":"3171","MEAN_MOTION_DDOT":"0.0000000000000","SEMIMAJOR_AXIS":"6917.900","GP_ID":"217062968","MEAN_MOTION":"15.08833604","COUNTRY_CODE":"US","MEAN_ANOMALY":"325.9491","OBJECT_NAME":"STARLINK-3769","TLE_LINE1":"1 52300U 22041AR  22310.77410260 -.00005158  00000-0 -30624-3 0  9993","REF_FRAME":"TEME","FILE":"3647203","LAUNCH_DATE":"2022-04-21","RA_OF_ASC_NODE":"171.0520","TLE_LINE2":"2 52300  53.2200 171.0520 0001393  34.1590 325.9491 15.08833604 31711","APOAPSIS":"540.729","TIME_SYSTEM":"UTC","RCS_SIZE":"LARGE","PERIOD":"95.438","EPOCH":"2022-11-06T18:34:42.464640","OBJECT_TYPE":"PAYLOAD","NORAD_CAT_ID":"52300","ECCENTRICITY":"0.00013930","ELEMENT_SET_NO":"999","PERIAPSIS":"538.801","ARG_OF_PERICENTER":"34.1590","CLASSIFICATION_TYPE":"U","MEAN_ELEMENT_THEORY":"SGP4","DECAY_DATE":null,"MEAN_MOTION_DOT":"-0.00005158","EPHEMERIS_TYPE":"0","INCLINATION":"53.2200","SITE":"AFETR"},{"EPOCH":"2022-11-06T19:01:10.199424","PERIOD":"95.438","RCS_SIZE":"LARGE","ELEMENT_SET_NO":"999","ECCENTRICITY":"0.00018150","NORAD_CAT_ID":"52301","OBJECT_TYPE":"PAYLOAD","RA_OF_ASC_NODE":"170.9717","TLE_LINE2":"2 52301  53.2191 170.9717 0001815  40.7932 319.3196 15.08833501 31703","LAUNCH_DATE":"2022-04-21","TIME_SYSTEM":"UTC","APOAPSIS":"541.021","MEAN_MOTION_DOT":"0.00000919","DECAY_DATE":null,"SITE":"AFETR","EPHEMERIS_TYPE":"0","INCLINATION":"53.2191","ARG_OF_PERICENTER":"40.7932","CLASSIFICATION_TYPE":"U","PERIAPSIS":"538.510","MEAN_ELEMENT_THEORY":"SGP4","GP_ID":"217062989","MEAN_MOTION":"15.08833501","OBJECT_ID":"2022-041AS","BSTAR":"0.00007582900000","REV_AT_EPOCH":"3170","CENTER_NAME":"EARTH","MEAN_MOTION_DDOT":"0.0000000000000","SEMIMAJOR_AXIS":"6917.900","OBJECT_NAME":"STARLINK-3768","FILE":"3647204","TLE_LINE1":"1 52301U 22041AS  22310.79247916  .00000919  00000-0  75829-4 0  9997","REF_FRAME":"TEME","COUNTRY_CODE":"US","MEAN_ANOMALY":"319.3196"},{"NORAD_CAT_ID":"52302","ECCENTRICITY":"0.00016290","ELEMENT_SET_NO":"999","OBJECT_TYPE":"PAYLOAD","EPOCH":"2022-11-06T02:26:16.505088","PERIOD":"95.439","RCS_SIZE":"LARGE","TIME_SYSTEM":"UTC","APOAPSIS":"540.929","TLE_LINE2":"2 52302  53.2160 164.0604 0001629  55.6597 304.4549 15.08821605 30522","RA_OF_ASC_NODE":"164.0604","LAUNCH_DATE":"2022-04-21","SITE":"AFETR","INCLINATION":"53.2160","EPHEMERIS_TYPE":"0","MEAN_MOTION_DOT":"-0.00003755","DECAY_DATE":null,"MEAN_ELEMENT_THEORY":"SGP4","CLASSIFICATION_TYPE":"U","ARG_OF_PERICENTER":"55.6597","PERIAPSIS":"538.675","MEAN_MOTION":"15.08821605","GP_ID":"217058045","SEMIMAJOR_AXIS":"6917.937","MEAN_MOTION_DDOT":"0.0000000000000","BSTAR":"-0.00021809000000","REV_AT_EPOCH":"3052","OBJECT_ID":"2022-041AT","CENTER_NAME":"EARTH","TLE_LINE1":"1 52302U 22041AT  22310.10157992 -.00003755  00000-0 -21809-3 0  9998","FILE":"3647066","REF_FRAME":"TEME","OBJECT_NAME":"STARLINK-3564","MEAN_ANOMALY":"304.4549","COUNTRY_CODE":"US"},{"TIME_SYSTEM":"UTC","APOAPSIS":"541.211","TLE_LINE2":"2 52303  53.2183 173.1076 0002072  47.7330 312.3838 15.08829622 31642","RA_OF_ASC_NODE":"173.1076","LAUNCH_DATE":"2022-04-21","NORAD_CAT_ID":"52303","ECCENTRICITY":"0.00020720","ELEMENT_SET_NO":"999","OBJECT_TYPE":"PAYLOAD","PERIOD":"95.438","EPOCH":"2022-11-06T07:32:17.433888","RCS_SIZE":"LARGE","MEAN_ELEMENT_THEORY":"SGP4","CLASSIFICATION_TYPE":"U","ARG_OF_PERICENTER":"47.7330","PERIAPSIS":"538.344","SITE":"AFETR","INCLINATION":"53.2183","EPHEMERIS_TYPE":"0","MEAN_MOTION_DOT":"-0.00003296","DECAY_DATE":null,"SEMIMAJOR_AXIS":"6917.912","MEAN_MOTION_DDOT":"0.0000000000000","REV_AT_EPOCH":"3164","BSTAR":"-0.00018914000000","OBJECT_ID":"2022-041AU","CENTER_NAME":"EARTH","MEAN_MOTION":"15.08829622","GP_ID":"217056793","MEAN_ANOMALY":"312.3838","COUNTRY_CODE":"US","TLE_LINE1":"1 52303U 22041AU  22310.31409067 -.00003296  00000-0 -18914-3 0  9998","REF_FRAME":"TEME","FILE":"3647066","OBJECT_NAME":"STARLINK-3742"},{"REV_AT_EPOCH":"3184","BSTAR":"-0.00002788100000","OBJECT_ID":"2022-041AV","CENTER_NAME":"EARTH","MEAN_MOTION_DDOT":"0.0000000000000","SEMIMAJOR_AXIS":"6917.916","MEAN_MOTION":"15.08828241","GP_ID":"217063414","COUNTRY_CODE":"US","MEAN_ANOMALY":"316.9629","OBJECT_NAME":"STARLINK-3744","REF_FRAME":"TEME","TLE_LINE1":"1 52304U 22041AV  22310.76028171 -.00000732  00000-0 -27881-4 0  9997","FILE":"3647204","TLE_LINE2":"2 52304  53.2163 161.1081 0001986  43.1518 316.9629 15.08828241 31841","RA_OF_ASC_NODE":"161.1081","LAUNCH_DATE":"2022-04-21","TIME_SYSTEM":"UTC","APOAPSIS":"541.155","EPOCH":"2022-11-06T18:14:48.339744","PERIOD":"95.438","RCS_SIZE":"LARGE","ELEMENT_SET_NO":"999","ECCENTRICITY":"0.00019860","NORAD_CAT_ID":"52304","OBJECT_TYPE":"PAYLOAD","CLASSIFICATION_TYPE":"U","ARG_OF_PERICENTER":"43.1518","PERIAPSIS":"538.407","MEAN_ELEMENT_THEORY":"SGP4","MEAN_MOTION_DOT":"-0.00000732","DECAY_DATE":null,"SITE":"AFETR","INCLINATION":"53.2163","EPHEMERIS_TYPE":"0"},{"BSTAR":"-0.00021452000000","REV_AT_EPOCH":"3039","OBJECT_ID":"2022-041AW","CENTER_NAME":"EARTH","SEMIMAJOR_AXIS":"6917.920","MEAN_MOTION_DDOT":"0.0000000000000","MEAN_MOTION":"15.08827145","GP_ID":"217058294","COUNTRY_CODE":"US","MEAN_ANOMALY":"307.8811","OBJECT_NAME":"STARLINK-3724","TLE_LINE1":"1 52305U 22041AW  22310.10896860 -.00003700  00000-0 -21452-3 0  9999","FILE":"3647066","REF_FRAME":"TEME","TLE_LINE2":"2 52305  53.2180 174.0395 0002113  52.2372 307.8811 15.08827145 30397","RA_OF_ASC_NODE":"174.0395","LAUNCH_DATE":"2022-04-21","TIME_SYSTEM":"UTC","APOAPSIS":"541.246","PERIOD":"95.438","EPOCH":"2022-11-06T02:36:54.887040","RCS_SIZE":"LARGE","NORAD_CAT_ID":"52305","ECCENTRICITY":"0.00021130","ELEMENT_SET_NO":"999","OBJECT_TYPE":"PAYLOAD","CLASSIFICATION_TYPE":"U","ARG_OF_PERICENTER":"52.2372","PERIAPSIS":"538.323","MEAN_ELEMENT_THEORY":"SGP4","MEAN_MOTION_DOT":"-0.00003700","DECAY_DATE":null,"SITE":"AFETR","INCLINATION":"53.2180","EPHEMERIS_TYPE":"0"},{"CENTER_NAME":"EARTH","OBJECT_ID":"2022-041AX","REV_AT_EPOCH":"3184","BSTAR":"-0.00001089800000","SEMIMAJOR_AXIS":"6917.915","MEAN_MOTION_DDOT":"0.0000000000000","GP_ID":"217062987","MEAN_MOTION":"15.08828531","COUNTRY_CODE":"US","MEAN_ANOMALY":"305.4015","OBJECT_NAME":"STARLINK-3747","TLE_LINE1":"1 52306U 22041AX  22310.75661082 -.00000461  00000-0 -10898-4 0  9991","FILE":"3647204","REF_FRAME":"TEME","LAUNCH_DATE":"2022-04-21","RA_OF_ASC_NODE":"161.1181","TLE_LINE2":"2 52306  53.2159 161.1181 0001498  54.7117 305.4015 15.08828531 31844","APOAPSIS":"540.817","TIME_SYSTEM":"UTC","RCS_SIZE":"LARGE","PERIOD":"95.438","EPOCH":"2022-11-06T18:09:31.174848","OBJECT_TYPE":"PAYLOAD","ELEMENT_SET_NO":"999","NORAD_CAT_ID":"52306","ECCENTRICITY":"0.00014980","PERIAPSIS":"538.744","ARG_OF_PERICENTER":"54.7117","CLASSIFICATION_TYPE":"U","MEAN_ELEMENT_THEORY":"SGP4","DECAY_DATE":null,"MEAN_MOTION_DOT":"-0.00000461","EPHEMERIS_TYPE":"0","INCLINATION":"53.2159","SITE":"AFETR"}];
